STARLINK-31702          
1 59585U 24076X   26068.19829379 -.00002266  00000+0 -72846-4 0  9999
2 59585  43.0030  12.1073 0001618 250.6764 109.3912 15.27570248106423
FLOCK 4G-26             
1 62633U 25009AA  26068.80489479  .00011283  00000+0  42469-3 0  9999
2 62633  97.4054 151.3913 0001988 299.1273  60.9767 15.27281631 63733
